{"type": "FeatureCollection", "features": [ {"type": "Feature", "properties": {"norad_id": 35287, "name": "COSMOS 2251 DEB", "group": "cosmos-2251-debris", "lat": 74.0137276909731, "lon": 14.922355663756301, "alt_km": 758.7325777884053, "timestamp": "2025-12-08T21:31:05.062473+00:00", "meta": {"OBJECT_NAME": "COSMOS 2251 DEB", "OBJECT_ID": "1993-036AJR", "EPOCH": "2025-12-08T06:45:42.279840", "MEAN_MOTION": 14.36370501, "ECCENTRICITY": 0.00173563, "INCLINATION": 74.0304, "RA_OF_ASC_NODE": 284.3273, "ARG_OF_PERICENTER": 22.2122, "MEAN_ANOMALY": 130.0196, "EPHEMERIS_TYPE": 0, "CLASSIFICATION_TYPE": "U", "NORAD_CAT_ID": 35287, "ELEMENT_SET_NO": 999, "REV_AT_EPOCH": 86828, "BSTAR": 0.00029165774, "MEAN_MOTION_DOT": 8.29e-06, "MEAN_MOTION_DDOT": 0}, "tle": {"line1": "1 35287U 93036AJR 25342.28173935  .00000829  00000+0  29166-3 0  9995", "line2": "2 35287  74.0304 284.3273 0017356  22.2122 130.0196 14.36370501868289"}}, "geometry": {"type": "Point", "coordinates": [14.922355663756301, 74.0137276909731]}}, {"type": "Feature", "properties": {"norad_id": 35288, "name": "COSMOS 2251 DEB", "group": "cosmos-2251-debris", "lat": -18.140603456913944, "lon": -151.97760591959604, "alt_km": 665.5331108231276, "timestamp": "2025-12-08T21:31:05.062483+00:00", "meta": {"OBJECT_NAME": "COSMOS 2251 DEB", "OBJECT_ID": "1993-036AJS", "EPOCH": "2025-12-08T09:08:27.010752", "MEAN_MOTION": 14.65383291, "ECCENTRICITY": 0.00395663, "INCLINATION": 73.9507, "RA_OF_ASC_NODE": 23.6078, "ARG_OF_PERICENTER": 257.7002, "MEAN_ANOMALY": 101.9735, "EPHEMERIS_TYPE": 0, "CLASSIFICATION_TYPE": "U", "NORAD_CAT_ID": 35288, "ELEMENT_SET_NO": 999, "REV_AT_EPOCH": 87814, "BSTAR": 0.0014064847, "MEAN_MOTION_DOT": 7.666e-05, "MEAN_MOTION_DDOT": 0}, "tle": {"line1": "1 35288U 93036AJS 25342.38086818  .00007666  00000+0  14065-2 0  9997", "line2": "2 35288  73.9507  23.6078 0039566 257.7002 101.9735 14.65383291878143"}}, "geometry": {"type": "Point", "coordinates": [-151.97760591959604, -18.140603456913944]}}, {"type": "Feature", "properties": {"norad_id": 35290, "name": "COSMOS 2251 DEB", "group": "cosmos-2251-debris", "lat": -73.75607263829663, "lon": -12.874481258388819, "alt_km": 634.9970462687152, "timestamp": "2025-12-08T21:31:05.062494+00:00", "meta": {"OBJECT_NAME": "COSMOS 2251 DEB", "OBJECT_ID": "1993-036AJU", "EPOCH": "2025-12-08T12:10:44.215680", "MEAN_MOTION": 14.8018119, "ECCENTRICITY": 0.00027465, "INCLINATION": 74.0052, "RA_OF_ASC_NODE": 67.7898, "ARG_OF_PERICENTER": 203.6265, "MEAN_ANOMALY": 156.4785, "EPHEMERIS_TYPE": 0, "CLASSIFICATION_TYPE": "U", "NORAD_CAT_ID": 35290, "ELEMENT_SET_NO": 999, "REV_AT_EPOCH": 87895, "BSTAR": 0.002766883, "MEAN_MOTION_DOT": 0.00021059, "MEAN_MOTION_DDOT": 0}, "tle": {"line1": "1 35290U 93036AJU 25342.50745620  .00021059  00000+0  27669-2 0  9993", "line2": "2 35290  74.0052  67.7898 0002746 203.6265 156.4785 14.80181190878953"}}, "geometry": {"type": "Point", "coordinates": [-12.874481258388819, -73.75607263829663]}}, {"type": "Feature", "properties": {"norad_id": 35432, "name": "COSMOS 2251 DEB", "group": "cosmos-2251-debris", "lat": -69.82298948760592, "lon": -27.59054057062054, "alt_km": 503.741086750475, "timestamp": "2025-12-08T21:31:05.062504+00:00", "meta": {"OBJECT_NAME": "COSMOS 2251 DEB", "OBJECT_ID": "1993-036AKA", "EPOCH": "2025-12-08T09:14:01.951584", "MEAN_MOTION": 15.21535483, "ECCENTRICITY": 0.00123385, "INCLINATION": 74.0223, "RA_OF_ASC_NODE": 24.7199, "ARG_OF_PERICENTER": 346.1042, "MEAN_ANOMALY": 13.9814, "EPHEMERIS_TYPE": 0, "CLASSIFICATION_TYPE": "U", "NORAD_CAT_ID": 35432, "ELEMENT_SET_NO": 999, "REV_AT_EPOCH": 87437, "BSTAR": 0.0061257801, "MEAN_MOTION_DOT": 0.0014095, "MEAN_MOTION_DDOT": 0}, "tle": {"line1": "1 35432U 93036AKA 25342.38474481  .00140950  00000+0  61258-2 0  9995", "line2": "2 35432  74.0223  24.7199 0012338 346.1042  13.9814 15.21535483874378"}}, "geometry": {"type": "Point", "coordinates": [-27.59054057062054, -69.82298948760592]}}, {"type": "Feature", "properties": {"norad_id": 35433, "name": "COSMOS 2251 DEB", "group": "cosmos-2251-debris", "lat": -48.17872632410115, "lon": -175.84927245963326, "alt_km": 800.4225574724287, "timestamp": "2025-12-08T21:31:05.062514+00:00", "meta": {"OBJECT_NAME": "COSMOS 2251 DEB", "OBJECT_ID": "1993-036AKB", "EPOCH": "2025-12-05T19:38:16.327392", "MEAN_MOTION": 14.34730306, "ECCENTRICITY": 0.00254596, "INCLINATION": 74.0335, "RA_OF_ASC_NODE": 351.128, "ARG_OF_PERICENTER": 48.4343, "MEAN_ANOMALY": 128.9694, "EPHEMERIS_TYPE": 0, "CLASSIFICATION_TYPE": "U", "NORAD_CAT_ID": 35433, "ELEMENT_SET_NO": 999, "REV_AT_EPOCH": 86481, "BSTAR": 0.00044039966, "MEAN_MOTION_DOT": 1.226e-05, "MEAN_MOTION_DDOT": 0}, "tle": {"line1": "1 35433U 93036AKB 25339.81824453  .00001226  00000+0  44040-3 0  9991", "line2": "2 35433  74.0335 351.1280 0025459  48.4343 128.9694 14.34730306864810"}}, "geometry": {"type": "Point", "coordinates": [-175.84927245963326, -48.17872632410115]}}, {"type": "Feature", "properties": {"norad_id": 35434, "name": "COSMOS 2251 DEB", "group": "cosmos-2251-debris", "lat": -74.01641550069645, "lon": 133.04869438707522, "alt_km": 754.5471546791377, "timestamp": "2025-12-08T21:31:05.062524+00:00", "meta": {"OBJECT_NAME": "COSMOS 2251 DEB", "OBJECT_ID": "1993-036AKC", "EPOCH": "2025-12-07T22:21:11.338272", "MEAN_MOTION": 14.25665764, "ECCENTRICITY": 0.00875677, "INCLINATION": 74.0404, "RA_OF_ASC_NODE": 222.3034, "ARG_OF_PERICENTER": 294.0481, "MEAN_ANOMALY": 65.1521, "EPHEMERIS_TYPE": 0, "CLASSIFICATION_TYPE": "U", "NORAD_CAT_ID": 35434, "ELEMENT_SET_NO": 999, "REV_AT_EPOCH": 86049, "BSTAR": 0.00094505461, "MEAN_MOTION_DOT": 2.307e-05, "MEAN_MOTION_DDOT": 0}, "tle": {"line1": "1 35434U 93036AKC 25341.93138123  .00002307  00000+0  94505-3 0  9992", "line2": "2 35434  74.0404 222.3034 0087567 294.0481  65.1521 14.25665764860490"}}, "geometry": {"type": "Point", "coordinates": [133.04869438707522, -74.01641550069645]}}, {"type": "Feature", "properties": {"norad_id": 35435, "name": "COSMOS 2251 DEB", "group": "cosmos-2251-debris", "lat": 73.0718122318419, "lon": -138.77183813209277, "alt_km": 629.5031292440017, "timestamp": "2025-12-08T21:31:05.062534+00:00", "meta": {"OBJECT_NAME": "COSMOS 2251 DEB", "OBJECT_ID": "1993-036AKD", "EPOCH": "2025-12-06T15:33:19.570752", "MEAN_MOTION": 14.78155636, "ECCENTRICITY": 0.00089158, "INCLINATION": 74.011, "RA_OF_ASC_NODE": 116.0521, "ARG_OF_PERICENTER": 210.6381, "MEAN_ANOMALY": 164.7127, "EPHEMERIS_TYPE": 0, "CLASSIFICATION_TYPE": "U", "NORAD_CAT_ID": 35435, "ELEMENT_SET_NO": 999, "REV_AT_EPOCH": 87449, "BSTAR": 0.0041982547, "MEAN_MOTION_DOT": 0.00030535, "MEAN_MOTION_DDOT": 0}, "tle": {"line1": "1 35435U 93036AKD 25340.64814318  .00030535  00000+0  41983-2 0  9992", "line2": "2 35435  74.0110 116.0521 0008915 210.6381 164.7127 14.78155636874491"}}, "geometry": {"type": "Point", "coordinates": [-138.77183813209277, 73.0718122318419]}}, {"type": "Feature", "properties": {"norad_id": 35439, "name": "COSMOS 2251 DEB", "group": "cosmos-2251-debris", "lat": 49.444480411461555, "lon": -58.240936479006756, "alt_km": 1090.067251823476, "timestamp": "2025-12-08T21:31:05.062544+00:00", "meta": {"OBJECT_NAME": "COSMOS 2251 DEB", "OBJECT_ID": "1993-036AKH", "EPOCH": "2025-12-08T04:32:22.387200", "MEAN_MOTION": 13.92777063, "ECCENTRICITY": 0.02417559, "INCLINATION": 74.0186, "RA_OF_ASC_NODE": 142.5356, "ARG_OF_PERICENTER": 312.8367, "MEAN_ANOMALY": 228.9661, "EPHEMERIS_TYPE": 0, "CLASSIFICATION_TYPE": "U", "NORAD_CAT_ID": 35439, "ELEMENT_SET_NO": 999, "REV_AT_EPOCH": 83897, "BSTAR": 0.0018631415, "MEAN_MOTION_DOT": 3.041e-05, "MEAN_MOTION_DDOT": 0}, "tle": {"line1": "1 35439U 93036AKH 25342.18914800  .00003041  00000+0  18631-2 0  9990", "line2": "2 35439  74.0186 142.5356 0241755 312.8367 228.9661 13.92777063838976"}}, "geometry": {"type": "Point", "coordinates": [-58.240936479006756, 49.444480411461555]}}, {"type": "Feature", "properties": {"norad_id": 35440, "name": "COSMOS 2251 DEB", "group": "cosmos-2251-debris", "lat": -45.049897962107266, "lon": 51.76132752477686, "alt_km": 702.1117958669774, "timestamp": "2025-12-08T21:31:05.062554+00:00", "meta": {"OBJECT_NAME": "COSMOS 2251 DEB", "OBJECT_ID": "1993-036AKJ", "EPOCH": "2025-12-08T09:02:26.366784", "MEAN_MOTION": 14.68778885, "ECCENTRICITY": 0.0069124, "INCLINATION": 74.0147, "RA_OF_ASC_NODE": 216.0804, "ARG_OF_PERICENTER": 357.9704, "MEAN_ANOMALY": 2.1175, "EPHEMERIS_TYPE": 0, "CLASSIFICATION_TYPE": "U", "NORAD_CAT_ID": 35440, "ELEMENT_SET_NO": 999, "REV_AT_EPOCH": 68701, "BSTAR": 0.00070103994, "MEAN_MOTION_DOT": 4.21e-05, "MEAN_MOTION_DDOT": 0}, "tle": {"line1": "1 35440U 93036AKJ 25342.37669406  .00004210  00000+0  70104-3 0  9995", "line2": "2 35440  74.0147 216.0804 0069124 357.9704   2.1175 14.68778885687019"}}, "geometry": {"type": "Point", "coordinates": [51.76132752477686, -45.049897962107266]}}, {"type": "Feature", "properties": {"norad_id": 35441, "name": "COSMOS 2251 DEB", "group": "cosmos-2251-debris", "lat": -74.05508141747298, "lon": -150.074549912826, "alt_km": 680.8191171558619, "timestamp": "2025-12-08T21:31:05.062564+00:00", "meta": {"OBJECT_NAME": "COSMOS 2251 DEB", "OBJECT_ID": "1993-036AKK", "EPOCH": "2025-12-08T15:22:12.064224", "MEAN_MOTION": 14.62488563, "ECCENTRICITY": 0.00372452, "INCLINATION": 74.1346, "RA_OF_ASC_NODE": 305.9066, "ARG_OF_PERICENTER": 204.2337, "MEAN_ANOMALY": 155.708, "EPHEMERIS_TYPE": 0, "CLASSIFICATION_TYPE": "U", "NORAD_CAT_ID": 35441, "ELEMENT_SET_NO": 999, "REV_AT_EPOCH": 87370, "BSTAR": 0.0024986548, "MEAN_MOTION_DOT": 0.00012785, "MEAN_MOTION_DDOT": 0}, "tle": {"line1": "1 35441U 93036AKK 25342.64041741  .00012785  00000+0  24987-2 0  9995", "line2": "2 35441  74.1346 305.9066 0037245 204.2337 155.7080 14.62488563873703"}}, "geometry": {"type": "Point", "coordinates": [-150.074549912826, -74.05508141747298]}}]}